373P/Rinner,e,13.7618,231.9481,221.0948,3.803511,0.1328701,0.39220914,108.0564,06/30.0/2021,2000,g 14.5,4.0
# From MPC114610
374P/Larson,e,10.7639,7.9120,51.4868,4.973544,0.0888598,0.46256139,80.0852,06/30.0/2021,2000,g 14.0,4.0
# From MPEC 2021-F20
375P/Hill,e,17.3613,359.9452,119.4547,5.556081,0.0752578,0.65855948,69.3906,06/30.0/2021,2000,g 16.0,4.0
# From MPEC 2020-W26
376P/LONEOS,e,1.1905,314.7725,284.7459,5.832126,0.0699784,0.51735992,44.9401,06/30.0/2021,2000,g 12.5,4.0
# From MPEC 2021-L04
377P/Scotti,e,9.0233,226.0602,355.0377,6.710427,0.0566994,0.25231539,20.0178,06/30.0/2021,2000,g  9.5,4.0
# From MPEC 2019-TG9
378P/McNaught,e,19.0581,94.4106,193.9004,6.380444,0.0611544,0.47043897,15.4942,06/30.0/2021,2000,g 12.0,4.0
# From MPC115889
379P/Spacewatch,e,12.4220,183.8273,30.9749,3.521035,0.1491758,0.34010027,104.2511,06/30.0/2021,2000,g 15.0,4.0
# From MPEC 2020-KB7
380P/PANSTARRS,e,8.2842,132.9839,88.4117,4.509590,0.1029197,0.33298199,78.0855,06/30.0/2021,2000,g 12.5,4.0
# From MPEC 2021-J28
381P/LINEAR-Spacewatch,e,28.3760,173.7697,173.1729,7.124256,0.0518316,0.68186388,33.2726,06/30.0/2021,2000,g 17.5,2.0
# From MPC115889
382P/Larson,e,7.8920,174.9786,173.3137,6.401786,0.0608488,0.31188360,344.0711,06/30.0/2021,2000,g  8.0,4.0
# From MPC118844
383P/Christensen,e,12.3213,207.8668,133.6850,3.545341,0.1476444,0.59961203,90.4578,06/30.0/2021,2000,g 18.0,4.0
# From MPEC 2020-W26
384P/Kowalski,e,7.2839,354.2283,37.6205,2.901045,0.1994676,0.61560715,125.1577,06/30.0/2021,2000,g 19.5,4.0
# From MPEC 2021-F20
385P/Hill,e,16.8299,357.0618,44.3246,4.288382,0.1109849,0.40150564,72.5982,06/30.0/2021,2000,g 13.0,4.0
# From MPEC 2021-L04
386P/PANSTARRS,e,15.2296,134.9480,353.2212,4.056684,0.1206278,0.41628709,37.9661,06/30.0/2021,2000,g 14.5,4.0
# From MPEC 2021-J28
387P/Boattini,e,8.9190,259.3156,162.7716,4.798484,0.0937666,0.73612427,62.1452,06/30.0/2021,2000,g 15.0,4.0
# From MPEC 2021-F20
388P/Gibbs,e,23.8689,37.0425,42.3593,5.244028,0.0820742,0.61802254,58.0628,06/30.0/2021,2000,g 13.0,4.0
# From MPEC 2021-J28
389P/Siding Spring,e,160.0692,218.8524,249.3108,5.627267,0.0738342,0.70431908,40.5192,06/30.0/2021,2000,g 16.0,4.0
# From MPEC 2021-J28
390P/Gibbs,e,18.5616,152.2749,232.3519,5.803704,0.0704930,0.70714153,32.7582,06/30.0/2021,2000,g 12.0,4.0
# From MPEC 2021-F20
391P/Kowalski,e,21.2759,124.7310,186.9964,4.679098,0.0973780,0.12065897,116.5450,06/30.0/2021,2000,g  8.0,4.0
# From MPEC 2021-J28
392P/LINEAR,e,4.9304,24.8810,71.9598,6.145588,0.0646932,0.68279084,29.4495,06/30.0/2021,2000,g 14.5,4.0
# From MPEC 2021-BE3
393P/Spacewatch-Hill,e,16.7909,36.4156,328.2563,4.786807,0.0941099,0.12056763,57.7066,06/30.0/2021,2000,g 11.0,4.0
# From MPEC 2020-KB7
394P/PANSTARRS,e,8.5295,98.1250,54.5209,4.332072,0.1093102,0.36784006,63.1486,06/30.0/2021,2000,g 16.0,2.4
# From MPEC 2021-L04
395P/Catalina-NEAT,e,3.2774,223.7528,89.7939,6.542282,0.0588993,0.37868373,349.1773,06/30.0/2021,2000,g 10.0,4.0
# From MPEC 2020-KB7
396P/,e,5.4363,136.6639,8.5917,6.817609,0.0553676,0.41591845,37.1782,06/30.0/2021,2000,g 12.0,4.0
# From MPEC 2021-F20
397P/Lemmon,e,10.9284,8.2030,14.4371,3.827558,0.1316198,0.40507777,49.4378,06/30.0/2021,2000,g 12.0,4.0
# From MPEC 2021-L04
398P/Boattini,e,11.0154,127.4621,320.2328,3.128241,0.1781369,0.58263784,33.0009,06/30.0/2021,2000,g 15.5,4.0
# From MPEC 2021-F20
399P/PANSTARRS,e,13.3189,207.1460,214.2928,3.789274,0.1336195,0.44685199,5.1351,06/30.0/2021,2000,g 15.6,4.0
# From MPEC 2020-FB5
400P/PANSTARRS,e,10.9291,176.3954,238.7923,3.559810,0.1467452,0.40913843,20.5284,06/30.0/2021,2000,g 15.5,2.8
# From MPEC 2021-BE3
401P/McNaught,e,12.8037,359.8857,309.3308,5.772720,0.0710613,0.58011142,40.5311,06/30.0/2021,2000,g 12.5,4.0
# From MPEC 2021-J28
402P/LINEAR,e,30.8528,123.0892,326.7429,7.010639,0.0530967,0.43830484,351.1000,06/30.0/2021,2000,g  8.0,4.0
# From MPEC 2021-J28
403P/Catalina,e,12.3209,163.8127,277.6655,5.427261,0.0779530,0.50341623,22.3451,06/30.0/2021,2000,g 12.0,4.0
# From MPEC 2020-W26
404P/Bressi,e,9.7383,261.8217,162.2171,4.825804,0.0929714,0.13709391,284.4084,06/30.0/2021,2000,g 10.0,4.0
# From MPEC 2021-L04
405P/Lemmon,e,9.3653,3.3130,112.2409,3.608985,0.1437561,0.68915173,26.9816,06/30.0/2021,2000,g 17.5,4.0
# From MPEC 2021-F20
406P/Gibbs,e,1.2135,11.4719,352.3783,3.574211,0.1458592,0.54199549,41.9005,06/30.0/2021,2000,g 17.0,4.0
# From MPEC 2021-F20
407P/PANSTARRS-Fuls,e,4.8920,80.8162,92.5908,3.459378,0.1531817,0.38475019,78.8455,06/30.0/2021,2000,g 14.0,4.0
# From MPEC 2021-F20
408P/Novichonok-Gerke,e,19.3265,189.4544,226.0017,4.762233,0.0948392,0.27123976,316.4381,06/30.0/2021,2000,g 11.0,4.0
# From MPEC 2021-L04
409P/LONEOS-Hill,e,17.1188,143.6713,15.1322,6.048029,0.0662649,0.70998260,10.1278,06/30.0/2021,2000,g 14.0,4.0
# From MPEC 2021-F20
410P/NEAT-LINEAR,e,9.3938,139.9805,313.0951,6.631636,0.0577129,0.51037226,0.3714,06/30.0/2021,2000,g 12.5,4.0
# From MPEC 2021-J28
411P/Christensen,e,12.3775,77.6716,46.6710,5.818391,0.0702263,0.58085889,10.9959,06/30.0/2021,2000,g 13.5,4.0
# From MPEC 2021-F20
412P/WISE,e,8.9312,0.8490,155.9157,3.109602,0.1797409,0.47981558,37.1409,06/30.0/2021,2000,g 17.0,4.0
# From MPEC 2021-L04
413P/Larson,e,15.9781,39.0252,186.0396,3.710496,0.1378974,0.42329117,357.2137,06/30.0/2021,2000,g 14.0,4.0
# From MPEC 2021-BE3
414P/STEREO,e,23.3840,257.7892,210.7314,2.794733,0.2109569,0.81165248,32.8288,06/30.0/2021,2000,g 19.0,4.0
# From MPEC 2021-L04
415P/Tenagra,e,31.7908,160.2943,346.2676,4.115811,0.1180378,0.19481009,15.9105,06/30.0/2021,2000,g 12.0,4.0
# From MPEC 2021-L04
416P/Scotti,e,3.3613,355.8121,134.5170,4.013548,0.1225777,0.45437350,16.4904,06/30.0/2021,2000,g 15.5,4.0
# From MPEC 2021-L04
417P/NEOWISE,e,8.1310,111.3511,129.4619,3.348170,0.1608766,0.55437556,11.0715,06/30.0/2021,2000,g 16.5,4.0
# From MPEC 2021-L04
418P/LINEAR,e,5.7974,277.6598,307.0949,5.081572,0.0860413,0.66488637,350.5734,06/30.0/2021,2000,g 13.0,4.0
# From MPEC 2021-J28
419P/PANSTARRS,e,2.8028,40.3901,187.4924,3.521807,0.1491268,0.27784421,342.1901,06/30.0/2021,2000,g 12.5,4.0
# From MPEC 2021-L04
420P/,e,14.5029,173.9597,157.1291,5.520737,0.0759816,0.49493758,335.1753,06/30.0/2021,2000,g 11.5,4.0
# From MPEC 2021-L04
421P/McNaught,e,10.0804,55.3487,259.8208,5.076099,0.0861805,0.67562946,13.3728,06/30.0/2021,2000,g 14.0,4.0
# From MPC107687
1I/`Oumuamua,h,09/09.4886/2017,122.6778,24.5997,241.6845,1.199252,0.255240,2000,23.0,2.0
# From MPEC 2020-K19
2I/Borisov,h,12/08.5549/2019,44.0527,308.1480,209.1251,3.356636,2.006548,2000,11.0,4.0
